[

][

][
{"name": "N/A", "address": "N/A", "opening_hours": "N/A", "type": "N/A", "rating": null, "price": "N/A"},
{"name": "N/A", "address": "N/A", "opening_hours": "N/A", "type": "N/A", "rating": null, "price": "N/A"},
{"name": "N/A", "address": "N/A", "opening_hours": "N/A", "type": "N/A", "rating": null, "price": "N/A"},
{"name": "N/A", "address": "N/A", "opening_hours": "N/A", "type": "N/A", "rating": null, "price": "N/A"},
{"name": "N/A", "address": "N/A", "opening_hours": "N/A", "type": "N/A", "rating": null, "price": "N/A"},
{"name": "N/A", "address": "N/A", "opening_hours": "N/A", "type": "N/A", "rating": null, "price": "N/A"},
{"name": "N/A", "address": "N/A", "opening_hours": "N/A", "type": "N/A", "rating": null, "price": "N/A"},
{"name": "N/A", "address": "N/A", "opening_hours": "N/A", "type": "N/A", "rating": null, "price": "N/A"},
{"name": "N/A", "address": "N/A", "opening_hours": "N/A", "type": "N/A", "rating": null, "price": "N/A"},
{"name": "N/A", "address": "N/A", "opening_hours": "N/A", "type": "N/A", "rating": null, "price": "N/A"},
{"name": "N/A", "address": "N/A", "opening_hours": "N/A", "type": "N/A", "rating": null, "price": "N/A"},
{"name": "N/A", "address": "N/A", "opening_hours": "N/A", "type": "N/A", "rating": null, "price": "N/A"},
{"name": "N/A", "address": "N/A", "opening_hours": "N/A", "type": "N/A", "rating": null, "price": "N/A"},
{"name": "N/A", "address": "N/A", "opening_hours": "N/A", "type": "N/A", "rating": null, "price": "N/A"},
{"name": "N/A", "address": "N/A", "opening_hours": "N/A", "type": "N/A", "rating": null, "price": "N/A"},
{"name": "N/A", "address": "N/A", "opening_hours": "N/A", "type": "N/A", "rating": null, "price": "N/A"},
{"name": "N/A", "address": "N/A", "opening_hours": "N/A", "type": "N/A", "rating": null, "price": "N/A"},
{"name": "N/A", "address": "N/A", "opening_hours": "N/A", "type": "N/A", "rating": null, "price": "N/A"},
{"name": "N/A", "address": "N/A", "opening_hours": "N/A", "type": "N/A", "rating": null, "price": "N/A"},
{"name": "N/A", "address": "N/A", "opening_hours": "N/A", "type": "N/A", "rating": null, "price": "N/A"},
{"name": "N/A", "address": "N/A", "opening_hours": "N/A", "type": "N/A", "rating": null, "price": "N/A"},
{"name": "N/A", "address": "N/A", "opening_hours": "N/A", "type": "N/A", "rating": null, "price": "N/A"},
{"name": "N/A", "address": "N/A", "opening_hours": "N/A", "type": "N/A", "rating": null, "price": "N/A"},
{"name": "N/A", "address": "N/A", "opening_hours": "N/A", "type": "N/A", "rating": null, "price": "N/A"},
{"name": "N/A", "address": "N/A", "opening_hours": "N/A", "type": "N/A", "rating": null, "price": "N/A"},
{"name": "N/A", "address": "N/A", "opening_hours": "N/A", "type": "N/A", "rating": null, "price": "N/A"},
{"name": "N/A", "address": "N/A", "opening_hours": "N/A", "type": "N/A", "rating": null, "price": "N/A"},
{"name": "N/A", "address": "N/A", "opening_hours": "N/A", "type": "N/A", "rating": null, "price": "N/A"},
{"name": "N/A", "address": "N/A", "opening_hours": "N/A", "type": "N/A", "rating": null, "price": "N/A"},
{"name": "N/A", "address": "N/A", "opening_hours": "N/A", "type": "N/A", "rating": null, "price": "N/A"},
{"name": "N/A", "address": "N/A", "opening_hours": "N/A", "type": "N/A", "rating": null, "price": "N/A"},
{"name": "N/A", "address": "N/A", "opening_hours": "N/A", "type": "N/A", "rating": null, "price": "N/A"},
{"name": "N/A", "address": "N/A", "opening_hours": "N/A", "type": "N/A", "rating": null, "price": "N/A"},
{"name": "N/A", "address": "N/A", "opening_hours": "N/A", "type": "N/A", "rating": null, "price": "N/A"},
{"name": "N/A", "address": "N/A", "opening_hours": "N/A", "type": "N/A", "rating": null, "price": "N/A"},
{"name": "N/A", "address": "N/A", "opening_hours": "N/A", "type": "N/A", "rating": null, "price": "N/A"},
{"name": "N/A", "address": "N/A", "opening_hours": "N/A", "type": "N/A", "rating": null, "price": "N/A"},
{"name": "N/A", "address": "N/A", "opening_hours": "N/A", "type": "N/A", "rating": null, "price": "N/A"},
{"name": "N/A", "address": "N/A", "opening_hours": "N/A", "type": "N/A", "rating": null, "price": "N/A"},
{"name": "N/A", "address": "N/A", "opening_hours": "N/A", "type": "N/A", "rating": null, "price": "N/A"},
{"name": "N/A", "address": "N/A", "opening_hours": "N/A", "type": "N/A", "rating": null, "price": "N/A"},
{"name": "N/A", "address": "N/A", "opening_hours": "N/A", "type": "N/A", "rating": null, "price": "N/A"},
{"name": "N/A", "address": "N/A", "opening_hours": "N/A", "type": "N/A", "rating": null, "price": "N/A"},
{"name": "N/A", "address": "N/A", "opening_hours": "N/A", "type": "N/A", "rating": null, "price": "N/A"},
{"name": "N/A", "address": "N/A", "opening_hours": "N/A", "type": "N/A", "rating": null, "price": "N/A"},
{"name": "N/A", "address": "N/A", "opening_hours": "N/A", "type": "N/A", "rating": null, "price": "N/A"},
{"name": "N/A", "address": "N/A", "opening_hours": "N/A", "type": "N/A", "rating": null, "price": "N/A"},
{"name": "N/A", "address": "N/A", "opening_hours": "N/A", "type": "N/A", "rating": null, "price": "N/A"},
{"name": "N/A", "address": "N/A", "opening_hours": "N/A", "type": "N/A", "rating": null, "price": "N/A"},
{"name": "N/A", "address": "N/A", "opening_hours": "N/A", "type": "N/A", "rating": null, "price": "N/A"},
{"name": "N/A", "address": "N/A", "opening_hours": "N/A", "type": "N/A", "rating": null, "price": "N/A"},
{"name": "N/A", "address": "N/A", "opening_hours": "N/A", "type": "N/A", "rating": null, "price": "N/A"},
{"name": "N/A", "address": "N/A", "opening_hours": "N/A", "type": "N/A", "rating": null, "price": "N/A"},
{"name": "N/A", "address": "N/A", "opening_hours": "N/A", "type": "N/A", "rating": null, "price": "N/A"},
{"name": "N/A", "address": "N/A", "opening_hours": "N/A", "type": "N/A", "rating": null, "price": "N/A"},
{"name": "N/A", "address": "N/A", "opening_hours": "N/A", "type": "N/A", "rating": null, "price": "N/A"},
{"name": "N/A", "address": "N/A", "opening_hours": "N/A", "type": "N/A", "rating": null, "price": "N/A"},
{"name": "N/A", "address": "N/A", "opening_hours": "N/A", "type": "N/A", "rating": null, "price": "N/A"},
{"name": "N/A", "address": "N/A", "opening_hours": "N/A", "type": "N/A", "rating": null, "price": "N/A"},
{"name": "N/A", "address": "N/A", "opening_hours": "N/A", "type": "N/A", "rating": null, "price": "N/A"}
][
{"name": "N/A", "address": "N/A", "opening_hours": "N/A", "type": "N/A", "rating": null, "price": "N/A"},
{"name": "N/A", "address": "N/A", "opening_hours": "N/A", "type": "N/A", "rating": null, "price": "N/A"},
{"name": "N/A", "address": "N/A", "opening_hours": "N/A", "type": "N/A", "rating": null, "price": "N/A"},
{"name": "N/A", "address": "N/A", "opening_hours": "N/A", "type": "N/A", "rating": null, "price": "N/A"},
{"name": "N/A", "address": "N/A", "opening_hours": "N/A", "type": "N/A", "rating": null, "price": "N/A"},
{"name": "N/A", "address": "N/A", "opening_hours": "N/A", "type": "N/A", "rating": null, "price": "N/A"},
{"name": "N/A", "address": "N/A", "opening_hours": "N/A", "type": "N/A", "rating": null, "price": "N/A"},
{"name": "N/A", "address": "N/A", "opening_hours": "N/A", "type": "N/A", "rating": null, "price": "N/A"},
{"name": "N/A", "address": "N/A", "opening_hours": "N/A", "type": "N/A", "rating": null, "price": "N/A"},
{"name": "N/A", "address": "N/A", "opening_hours": "N/A", "type": "N/A", "rating": null, "price": "N/A"},
{"name": "N/A", "address": "N/A", "opening_hours": "N/A", "type": "N/A", "rating": null, "price": "N/A"},
{"name": "N/A", "address": "N/A", "opening_hours": "N/A", "type": "N/A", "rating": null, "price": "N/A"},
{"name": "N/A", "address": "N/A", "opening_hours": "N/A", "type": "N/A", "rating": null, "price": "N/A"},
{"name": "N/A", "address": "N/A", "opening_hours": "N/A", "type": "N/A", "rating": null, "price": "N/A"},
{"name": "N/A", "address": "N/A", "opening_hours": "N/A", "type": "N/A", "rating": null, "price": "N/A"},
{"name": "N/A", "address": "N/A", "opening_hours": "N/A", "type": "N/A", "rating": null, "price": "N/A"},
{"name": "N/A", "address": "N/A", "opening_hours": "N/A", "type": "N/A", "rating": null, "price": "N/A"},
{"name": "N/A", "address": "N/A", "opening_hours": "N/A", "type": "N/A", "rating": null, "price": "N/A"},
{"name": "N/A", "address": "N/A", "opening_hours": "N/A", "type": "N/A", "rating": null, "price": "N/A"},
{"name": "N/A", "address": "N/A", "opening_hours": "N/A", "type": "N/A", "rating": null, "price": "N/A"},
{"name": "N/A", "address": "N/A", "opening_hours": "N/A", "type": "N/A", "rating": null, "price": "N/A"},
{"name": "N/A", "address": "N/A", "opening_hours": "N/A", "type": "N/A", "rating": null, "price": "N/A"},
{"name": "N/A", "address": "N/A", "opening_hours": "N/A", "type": "N/A", "rating": null, "price": "N/A"},
{"name": "N/A", "address": "N/A", "opening_hours": "N/A", "type": "N/A", "rating": null, "price": "N/A"},
{"name": "N/A", "address": "N/A", "opening_hours": "N/A", "type": "N/A", "rating": null, "price": "N/A"},
{"name": "N/A", "address": "N/A", "opening_hours": "N/A", "type": "N/A", "rating": null, "price": "N/A"},
{"name": "N/A", "address": "N/A", "opening_hours": "N/A", "type": "N/A", "rating": null, "price": "N/A"},
{"name": "N/A", "address": "N/A", "opening_hours": "N/A", "type": "N/A", "rating": null, "price": "N/A"},
{"name": "N/A", "address": "N/A", "opening_hours": "N/A", "type": "N/A", "rating": null, "price": "N/A"},
{"name": "N/A", "address": "N/A", "opening_hours": "N/A", "type": "N/A", "rating": null, "price": "N/A"},
{"name": "N/A", "address": "N/A", "opening_hours": "N/A", "type": "N/A", "rating": null, "price": "N/A"},
{"name": "N/A", "address": "N/A", "opening_hours": "N/A", "type": "N/A", "rating": null, "price": "N/A"},
{"name": "N/A", "address": "N/A", "opening_hours": "N/A", "type": "N/A", "rating": null, "price": "N/A"},
{"name": "N/A", "address": "N/A", "opening_hours": "N/A", "type": "N/A", "rating": null, "price": "N/A"},
{"name": "N/A", "address": "N/A", "opening_hours": "N/A", "type": "N/A", "rating": null, "price": "N/A"},
{"name": "N/A", "address": "N/A", "opening_hours": "N/A", "type": "N/A", "rating": null, "price": "N/A"},
{"name": "N/A", "address": "N/A", "opening_hours": "N/A", "type": "N/A", "rating": null, "price": "N/A"},
{"name": "N/A", "address": "N/A", "opening_hours": "N/A", "type": "N/A", "rating": null, "price": "N/A"},
{"name": "N/A", "address": "N/A", "opening_hours": "N/A", "type": "N/A", "rating": null, "price": "N/A"},
{"name": "N/A", "address": "N/A", "opening_hours": "N/A", "type": "N/A", "rating": null, "price": "N/A"},
{"name": "N/A", "address": "N/A", "opening_hours": "N/A", "type": "N/A", "rating": null, "price": "N/A"},
{"name": "N/A", "address": "N/A", "opening_hours": "N/A", "type": "N/A", "rating": null, "price": "N/A"},
{"name": "N/A", "address": "N/A", "opening_hours": "N/A", "type": "N/A", "rating": null, "price": "N/A"},
{"name": "N/A", "address": "N/A", "opening_hours": "N/A", "type": "N/A", "rating": null, "price": "N/A"},
{"name": "N/A", "address": "N/A", "opening_hours": "N/A", "type": "N/A", "rating": null, "price": "N/A"},
{"name": "N/A", "address": "N/A", "opening_hours": "N/A", "type": "N/A", "rating": null, "price": "N/A"},
{"name": "N/A", "address": "N/A", "opening_hours": "N/A", "type": "N/A", "rating": null, "price": "N/A"},
{"name": "N/A", "address": "N/A", "opening_hours": "N/A", "type": "N/A", "rating": null, "price": "N/A"},
{"name": "N/A", "address": "N/A", "opening_hours": "N/A", "type": "N/A", "rating": null, "price": "N/A"},
{"name": "N/A", "address": "N/A", "opening_hours": "N/A", "type": "N/A", "rating": null, "price": "N/A"},
{"name": "N/A", "address": "N/A", "opening_hours": "N/A", "type": "N/A", "rating": null, "price": "N/A"},
{"name": "N/A", "address": "N/A", "opening_hours": "N/A", "type": "N/A", "rating": null, "price": "N/A"},
{"name": "N/A", "address": "N/A", "opening_hours": "N/A", "type": "N/A", "rating": null, "price": "N/A"},
{"name": "N/A", "address": "N/A", "opening_hours": "N/A", "type": "N/A", "rating": null, "price": "N/A"},
{"name": "N/A", "address": "N/A", "opening_hours": "N/A", "type": "N/A", "rating": null, "price": "N/A"},
{"name": "N/A", "address": "N/A", "opening_hours": "N/A", "type": "N/A", "rating": null, "price": "N/A"},
{"name": "N/A", "address": "N/A", "opening_hours": "N/A", "type": "N/A", "rating": null, "price": "N/A"},
{"name": "N/A", "address": "N/A", "opening_hours": "N/A", "type": "N/A", "rating": null, "price": "N/A"},
{"name": "N/A", "address": "N/A", "opening_hours": "N/A", "type": "N/A", "rating": null, "price": "N/A"},
{"name": "N/A", "address": "N/A", "opening_hours": "N/A", "type": "N/A", "rating": null, "price": "N/A"}
][
{"name": "N/A", "address": "N/A", "opening_hours": "N/A", "type": "N/A", "rating": null, "price": "N/A"},
{"name": "N/A", "address": "N/A", "opening_hours": "N/A", "type": "N/A", "rating": null, "price": "N/A"},
{"name": "N/A", "address": "N/A", "opening_hours": "N/A", "type": "N/A", "rating": null, "price": "N/A"},
{"name": "N/A", "address": "N/A", "opening_hours": "N/A", "type": "N/A", "rating": null, "price": "N/A"},
{"name": "N/A", "address": "N/A", "opening_hours": "N/A", "type": "N/A", "rating": null, "price": "N/A"},
{"name": "N/A", "address": "N/A", "opening_hours": "N/A", "type": "N/A", "rating": null, "price": "N/A"},
{"name": "N/A", "address": "N/A", "opening_hours": "N/A", "type": "N/A", "rating": null, "price": "N/A"},
{"name": "N/A", "address": "N/A", "opening_hours": "N/A", "type": "N/A", "rating": null, "price": "N/A"},
{"name": "N/A", "address": "N/A", "opening_hours": "N/A", "type": "N/A", "rating": null, "price": "N/A"},
{"name": "N/A", "address": "N/A", "opening_hours": "N/A", "type": "N/A", "rating": null, "price": "N/A"},
{"name": "N/A", "address": "N/A", "opening_hours": "N/A", "type": "N/A", "rating": null, "price": "N/A"},
{"name": "N/A", "address": "N/A", "opening_hours": "N/A", "type": "N/A", "rating": null, "price": "N/A"},
{"name": "N/A", "address": "N/A", "opening_hours": "N/A", "type": "N/A", "rating": null, "price": "N/A"},
{"name": "N/A", "address": "N/A", "opening_hours": "N/A", "type": "N/A", "rating": null, "price": "N/A"},
{"name": "N/A", "address": "N/A", "opening_hours": "N/A", "type": "N/A", "rating": null, "price": "N/A"},
{"name": "N/A", "address": "N/A", "opening_hours": "N/A", "type": "N/A", "rating": null, "price": "N/A"},
{"name": "N/A", "address": "N/A", "opening_hours": "N/A", "type": "N/A", "rating": null, "price": "N/A"},
{"name": "N/A", "address": "N/A", "opening_hours": "N/A", "type": "N/A", "rating": null, "price": "N/A"},
{"name": "N/A", "address": "N/A", "opening_hours": "N/A", "type": "N/A", "rating": null, "price": "N/A"},
{"name": "N/A", "address": "N/A", "opening_hours": "N/A", "type": "N/A", "rating": null, "price": "N/A"},
{"name": "N/A", "address": "N/A", "opening_hours": "N/A", "type": "N/A", "rating": null, "price": "N/A"},
{"name": "N/A", "address": "N/A", "opening_hours": "N/A", "type": "N/A", "rating": null, "price": "N/A"},
{"name": "N/A", "address": "N/A", "opening_hours": "N/A", "type": "N/A", "rating": null, "price": "N/A"},
{"name": "N/A", "address": "N/A", "opening_hours": "N/A", "type": "N/A", "rating": null, "price": "N/A"},
{"name": "N/A", "address": "N/A", "opening_hours": "N/A", "type": "N/A", "rating": null, "price": "N/A"},
{"name": "N/A", "address": "N/A", "opening_hours": "N/A", "type": "N/A", "rating": null, "price": "N/A"},
{"name": "N/A", "address": "N/A", "opening_hours": "N/A", "type": "N/A", "rating": null, "price": "N/A"},
{"name": "N/A", "address": "N/A", "opening_hours": "N/A", "type": "N/A", "rating": null, "price": "N/A"},
{"name": "N/A", "address": "N/A", "opening_hours": "N/A", "type": "N/A", "rating": null, "price": "N/A"},
{"name": "N/A", "address": "N/A", "opening_hours": "N/A", "type": "N/A", "rating": null, "price": "N/A"},
{"name": "N/A", "address": "N/A", "opening_hours": "N/A", "type": "N/A", "rating": null, "price": "N/A"},
{"name": "N/A", "address": "N/A", "opening_hours": "N/A", "type": "N/A", "rating": null, "price": "N/A"},
{"name": "N/A", "address": "N/A", "opening_hours": "N/A", "type": "N/A", "rating": null, "price": "N/A"},
{"name": "N/A", "address": "N/A", "opening_hours": "N/A", "type": "N/A", "rating": null, "price": "N/A"},
{"name": "N/A", "address": "N/A", "opening_hours": "N/A", "type": "N/A", "rating": null, "price": "N/A"},
{"name": "N/A", "address": "N/A", "opening_hours": "N/A", "type": "N/A", "rating": null, "price": "N/A"},
{"name": "N/A", "address": "N/A", "opening_hours": "N/A", "type": "N/A", "rating": null, "price": "N/A"},
{"name": "N/A", "address": "N/A", "opening_hours": "N/A", "type": "N/A", "rating": null, "price": "N/A"},
{"name": "N/A", "address": "N/A", "opening_hours": "N/A", "type": "N/A", "rating": null, "price": "N/A"},
{"name": "N/A", "address": "N/A", "opening_hours": "N/A", "type": "N/A", "rating": null, "price": "N/A"},
{"name": "N/A", "address": "N/A", "opening_hours": "N/A", "type": "N/A", "rating": null, "price": "N/A"},
{"name": "N/A", "address": "N/A", "opening_hours": "N/A", "type": "N/A", "rating": null, "price": "N/A"},
{"name": "N/A", "address": "N/A", "opening_hours": "N/A", "type": "N/A", "rating": null, "price": "N/A"},
{"name": "N/A", "address": "N/A", "opening_hours": "N/A", "type": "N/A", "rating": null, "price": "N/A"},
{"name": "N/A", "address": "N/A", "opening_hours": "N/A", "type": "N/A", "rating": null, "price": "N/A"},
{"name": "N/A", "address": "N/A", "opening_hours": "N/A", "type": "N/A", "rating": null, "price": "N/A"},
{"name": "N/A", "address": "N/A", "opening_hours": "N/A", "type": "N/A", "rating": null, "price": "N/A"},
{"name": "N/A", "address": "N/A", "opening_hours": "N/A", "type": "N/A", "rating": null, "price": "N/A"},
{"name": "N/A", "address": "N/A", "opening_hours": "N/A", "type": "N/A", "rating": null, "price": "N/A"},
{"name": "N/A", "address": "N/A", "opening_hours": "N/A", "type": "N/A", "rating": null, "price": "N/A"},
{"name": "N/A", "address": "N/A", "opening_hours": "N/A", "type": "N/A", "rating": null, "price": "N/A"},
{"name": "N/A", "address": "N/A", "opening_hours": "N/A", "type": "N/A", "rating": null, "price": "N/A"},
{"name": "N/A", "address": "N/A", "opening_hours": "N/A", "type": "N/A", "rating": null, "price": "N/A"},
{"name": "N/A", "address": "N/A", "opening_hours": "N/A", "type": "N/A", "rating": null, "price": "N/A"},
{"name": "N/A", "address": "N/A", "opening_hours": "N/A", "type": "N/A", "rating": null, "price": "N/A"},
{"name": "N/A", "address": "N/A", "opening_hours": "N/A", "type": "N/A", "rating": null, "price": "N/A"},
{"name": "N/A", "address": "N/A", "opening_hours": "N/A", "type": "N/A", "rating": null, "price": "N/A"},
{"name": "N/A", "address": "N/A", "opening_hours": "N/A", "type": "N/A", "rating": null, "price": "N/A"},
{"name": "N/A", "address": "N/A", "opening_hours": "N/A", "type": "N/A", "rating": null, "price": "N/A"},
{"name": "N/A", "address": "N/A", "opening_hours": "N/A", "type": "N/A", "rating": null, "price": "N/A"}
][
{"name": "N/A", "address": "N/A", "opening_hours": "N/A", "type": "N/A", "rating": null, "price": "N/A"},
{"name": "N/A", "address": "N/A", "opening_hours": "N/A", "type": "N/A", "rating": null, "price": "N/A"},
{"name": "N/A", "address": "N/A", "opening_hours": "N/A", "type": "N/A", "rating": null, "price": "N/A"}
][

][

]